{
  "type": "FeatureCollection",
  "features": [
    {
      "type": "Feature",
      "properties": {
        "norad_id": 35446,
        "name": "COSMOS 2251 DEB",
        "group": "cosmos-2251-debris",
        "lat": -50.97412090923546,
        "lon": 131.57193134999164,
        "alt_km": 769.4381741522147,
        "timestamp": "2025-12-27T03:58:44.542837+00:00",
        "meta_object_name": "COSMOS 2251 DEB",
        "meta_object_id": "1993-036AKQ",
        "meta_epoch": "2025-12-24T02:17:06.099072",
        "meta_mean_motion": 14.54640342,
        "meta_eccentricity": 0.00747088,
        "meta_inclination": 74.0474,
        "meta_ra_of_asc_node": 296.7103,
        "meta_arg_of_pericenter": 51.6552,
        "meta_mean_anomaly": 309.1293,
        "meta_ephemeris_type": 0,
        "meta_classification_type": "U",
        "meta_norad_cat_id": 35446,
        "meta_element_set_no": 999,
        "meta_rev_at_epoch": 88173,
        "meta_bstar": 0.00011899718,
        "meta_mean_motion_dot": 4.98e-06,
        "meta_mean_motion_ddot": 0,
        "tle_line1": "1 35446U 93036AKQ 25358.09520948  .00000498  00000+0  11900-3 0  9997",
        "tle_line2": "2 35446  74.0474 296.7103 0074708  51.6552 309.1293 14.54640342881735"
      },
      "geometry": {
        "type": "Point",
        "coordinates": [
          131.57193134999164,
          -50.97412090923546
        ]
      }
    },
    {
      "type": "Feature",
      "properties": {
        "norad_id": 35448,
        "name": "COSMOS 2251 DEB",
        "group": "cosmos-2251-debris",
        "lat": 69.30704738372508,
        "lon": 111.87136844207299,
        "alt_km": 712.7666298469921,
        "timestamp": "2025-12-27T03:58:44.542846+00:00",
        "meta_object_name": "COSMOS 2251 DEB",
        "meta_object_id": "1993-036AKS",
        "meta_epoch": "2025-12-26T14:25:10.468704",
        "meta_mean_motion": 14.54377943,
        "meta_eccentricity": 0.0012168,
        "meta_inclination": 73.903,
        "meta_ra_of_asc_node": 63.0866,
        "meta_arg_of_pericenter": 247.5607,
        "meta_mean_anomaly": 112.4267,
        "meta_ephemeris_type": 0,
        "meta_classification_type": "U",
        "meta_norad_cat_id": 35448,
        "meta_element_set_no": 999,
        "meta_rev_at_epoch": 87536,
        "meta_bstar": 0.0010063,
        "meta_mean_motion_dot": 4.254e-05,
        "meta_mean_motion_ddot": 0,
        "tle_line1": "1 35448U 93036AKS 25360.60081561  .00004254  00000+0  10063-2 0  9994",
        "tle_line2": "2 35448  73.9030  63.0866 0012168 247.5607 112.4267 14.54377943875365"
      },
      "geometry": {
        "type": "Point",
        "coordinates": [
          111.87136844207299,
          69.30704738372508
        ]
      }
    },
    {
      "type": "Feature",
      "properties": {
        "norad_id": 35451,
        "name": "COSMOS 2251 DEB",
        "group": "cosmos-2251-debris",
        "lat": 30.71914923820843,
        "lon": 81.33715680952811,
        "alt_km": 446.54603658698215,
        "timestamp": "2025-12-27T03:58:44.542855+00:00",
        "meta_object_name": "COSMOS 2251 DEB",
        "meta_object_id": "1993-036AKV",
        "meta_epoch": "2025-12-22T16:02:09.713472",
        "meta_mean_motion": 15.36538479,
        "meta_eccentricity": 0.00416089,
        "meta_inclination": 73.9322,
        "meta_ra_of_asc_node": 81.2046,
        "meta_arg_of_pericenter": 326.0524,
        "meta_mean_anomaly": 33.8019,
        "meta_ephemeris_type": 0,
        "meta_classification_type": "U",
        "meta_norad_cat_id": 35451,
        "meta_element_set_no": 999,
        "meta_rev_at_epoch": 67558,
        "meta_bstar": 0.0014760448,
        "meta_mean_motion_dot": 0.00054537,
        "meta_mean_motion_ddot": 0,
        "tle_line1": "1 35451U 93036AKV 25356.66816798  .00054537  00000+0  14760-2 0  9994",
        "tle_line2": "2 35451  73.9322  81.2046 0041608 326.0524  33.8019 15.36538479675584"
      },
      "geometry": {
        "type": "Point",
        "coordinates": [
          81.33715680952811,
          30.71914923820843
        ]
      }
    },
    {
      "type": "Feature",
      "properties": {
        "norad_id": 35453,
        "name": "COSMOS 2251 DEB",
        "group": "cosmos-2251-debris",
        "lat": 2.738964666954104,
        "lon": -5.449050627532005,
        "alt_km": 791.8617949786903,
        "timestamp": "2025-12-27T03:58:44.542865+00:00",
        "meta_object_name": "COSMOS 2251 DEB",
        "meta_object_id": "1993-036AKX",
        "meta_epoch": "2025-12-16T19:11:22.117056",
        "meta_mean_motion": 14.38003213,
        "meta_eccentricity": 0.00669431,
        "meta_inclination": 74.0096,
        "meta_ra_of_asc_node": 12.8823,
        "meta_arg_of_pericenter": 145.8531,
        "meta_mean_anomaly": 214.6957,
        "meta_ephemeris_type": 0,
        "meta_classification_type": "U",
        "meta_norad_cat_id": 35453,
        "meta_element_set_no": 999,
        "meta_rev_at_epoch": 86277,
        "meta_bstar": 0.00051941791,
        "meta_mean_motion_dot": 1.586e-05,
        "meta_mean_motion_ddot": 0,
        "tle_line1": "1 35453U 93036AKX 25350.79956154  .00001586  00000+0  51942-3 0  9995",
        "tle_line2": "2 35453  74.0096  12.8823 0066943 145.8531 214.6957 14.38003213862776"
      },
      "geometry": {
        "type": "Point",
        "coordinates": [
          -5.449050627532005,
          2.738964666954104
        ]
      }
    },
    {
      "type": "Feature",
      "properties": {
        "norad_id": 35455,
        "name": "COSMOS 2251 DEB",
        "group": "cosmos-2251-debris",
        "lat": 73.7751621151431,
        "lon": 7.905256434960415,
        "alt_km": 712.6338373712333,
        "timestamp": "2025-12-27T03:58:44.542882+00:00",
        "meta_object_name": "COSMOS 2251 DEB",
        "meta_object_id": "1993-036AKZ",
        "meta_epoch": "2025-12-26T10:59:42.400032",
        "meta_mean_motion": 14.49558109,
        "meta_eccentricity": 0.0100048,
        "meta_inclination": 74.0277,
        "meta_ra_of_asc_node": 269.0466,
        "meta_arg_of_pericenter": 9.4295,
        "meta_mean_anomaly": 350.8711,
        "meta_ephemeris_type": 0,
        "meta_classification_type": "U",
        "meta_norad_cat_id": 35455,
        "meta_element_set_no": 999,
        "meta_rev_at_epoch": 86742,
        "meta_bstar": 0.0013639,
        "meta_mean_motion_dot": 5.554e-05,
        "meta_mean_motion_ddot": 0,
        "tle_line1": "1 35455U 93036AKZ 25360.45812963  .00005554  00000+0  13639-2 0  9999",
        "tle_line2": "2 35455  74.0277 269.0466 0100048   9.4295 350.8711 14.49558109867424"
      },
      "geometry": {
        "type": "Point",
        "coordinates": [
          7.905256434960415,
          73.7751621151431
        ]
      }
    },
    {
      "type": "Feature",
      "properties": {
        "norad_id": 35456,
        "name": "COSMOS 2251 DEB",
        "group": "cosmos-2251-debris",
        "lat": 52.01799268034318,
        "lon": 111.01482891983814,
        "alt_km": 679.273439206032,
        "timestamp": "2025-12-27T03:58:44.542891+00:00",
        "meta_object_name": "COSMOS 2251 DEB",
        "meta_object_id": "1993-036ALA",
        "meta_epoch": "2025-12-23T00:04:26.032512",
        "meta_mean_motion": 14.69618117,
        "meta_eccentricity": 0.00667181,
        "meta_inclination": 73.9512,
        "meta_ra_of_asc_node": 97.4858,
        "meta_arg_of_pericenter": 305.2899,
        "meta_mean_anomaly": 54.2041,
        "meta_ephemeris_type": 0,
        "meta_classification_type": "U",
        "meta_norad_cat_id": 35456,
        "meta_element_set_no": 999,
        "meta_rev_at_epoch": 66026,
        "meta_bstar": 0.0018731177,
        "meta_mean_motion_dot": 0.00011509,
        "meta_mean_motion_ddot": 0,
        "tle_line1": "1 35456U 93036ALA 25357.00307908  .00011509  00000+0  18731-2 0  9990",
        "tle_line2": "2 35456  73.9512  97.4858 0066718 305.2899  54.2041 14.69618117660267"
      },
      "geometry": {
        "type": "Point",
        "coordinates": [
          111.01482891983814,
          52.01799268034318
        ]
      }
    },
    {
      "type": "Feature",
      "properties": {
        "norad_id": 35459,
        "name": "COSMOS 2251 DEB",
        "group": "cosmos-2251-debris",
        "lat": -30.56634796049285,
        "lon": -9.683828007448966,
        "alt_km": 775.8635045300762,
        "timestamp": "2025-12-27T03:58:44.542900+00:00",
        "meta_object_name": "COSMOS 2251 DEB",
        "meta_object_id": "1993-036ALD",
        "meta_epoch": "2025-12-21T18:23:18.751200",
        "meta_mean_motion": 14.37474606,
        "meta_eccentricity": 0.0015969,
        "meta_inclination": 73.8701,
        "meta_ra_of_asc_node": 170.5081,
        "meta_arg_of_pericenter": 115.4549,
        "meta_mean_anomaly": 244.8258,
        "meta_ephemeris_type": 0,
        "meta_classification_type": "U",
        "meta_norad_cat_id": 35459,
        "meta_element_set_no": 999,
        "meta_rev_at_epoch": 58491,
        "meta_bstar": 0.00020108543,
        "meta_mean_motion_dot": 5.75e-06,
        "meta_mean_motion_ddot": 0,
        "tle_line1": "1 35459U 93036ALD 25355.76618925  .00000575  00000+0  20109-3 0  9992",
        "tle_line2": "2 35459  73.8701 170.5081 0015969 115.4549 244.8258 14.37474606584917"
      },
      "geometry": {
        "type": "Point",
        "coordinates": [
          -9.683828007448966,
          -30.56634796049285
        ]
      }
    }
  ]
}